{
  "type": "FeatureCollection",
  "features": [
    {
      "type": "Feature",
      "properties": {
        "norad_id": 35959,
        "name": "COSMOS 2251 DEB",
        "group": "cosmos-2251-debris",
        "lat": -67.31504264601799,
        "lon": 159.73465786648697,
        "alt_km": 792.8746816211224,
        "timestamp": "2025-12-21T05:44:51.984272+00:00",
        "meta_object_name": "COSMOS 2251 DEB",
        "meta_object_id": "1993-036AUZ",
        "meta_epoch": "2025-12-20T20:11:50.381376",
        "meta_mean_motion": 14.3414118,
        "meta_eccentricity": 0.00219057,
        "meta_inclination": 74.0331,
        "meta_ra_of_asc_node": 297.232,
        "meta_arg_of_pericenter": 15.4926,
        "meta_mean_anomaly": 344.6891,
        "meta_ephemeris_type": 0,
        "meta_classification_type": "U",
        "meta_norad_cat_id": 35959,
        "meta_element_set_no": 999,
        "meta_rev_at_epoch": 85044,
        "meta_bstar": 8.5277776e-05,
        "meta_mean_motion_dot": 2.13e-06,
        "meta_mean_motion_ddot": 0,
        "tle_line1": "1 35959U 93036AUZ 25354.84155534  .00000213  00000+0  85278-4 0  9995",
        "tle_line2": "2 35959  74.0331 297.2320 0021905  15.4926 344.6891 14.34141180850443"
      },
      "geometry": {
        "type": "Point",
        "coordinates": [
          159.73465786648697,
          -67.31504264601799
        ]
      }
    },
    {
      "type": "Feature",
      "properties": {
        "norad_id": 35961,
        "name": "COSMOS 2251 DEB",
        "group": "cosmos-2251-debris",
        "lat": 23.752063331104797,
        "lon": -163.47862575276156,
        "alt_km": 886.0285378541575,
        "timestamp": "2025-12-21T05:44:51.984282+00:00",
        "meta_object_name": "COSMOS 2251 DEB",
        "meta_object_id": "1993-036AVB",
        "meta_epoch": "2025-12-18T21:15:12.372768",
        "meta_mean_motion": 14.05418101,
        "meta_eccentricity": 0.01915239,
        "meta_inclination": 73.9239,
        "meta_ra_of_asc_node": 193.3704,
        "meta_arg_of_pericenter": 125.5075,
        "meta_mean_anomaly": 236.4097,
        "meta_ephemeris_type": 0,
        "meta_classification_type": "U",
        "meta_norad_cat_id": 35961,
        "meta_element_set_no": 999,
        "meta_rev_at_epoch": 62768,
        "meta_bstar": 0.0011788636,
        "meta_mean_motion_dot": 2.232e-05,
        "meta_mean_motion_ddot": 0,
        "tle_line1": "1 35961U 93036AVB 25352.88555987  .00002232  00000+0  11789-2 0  9993",
        "tle_line2": "2 35961  73.9239 193.3704 0191523 125.5075 236.4097 14.05418101627687"
      },
      "geometry": {
        "type": "Point",
        "coordinates": [
          -163.47862575276156,
          23.752063331104797
        ]
      }
    },
    {
      "type": "Feature",
      "properties": {
        "norad_id": 35979,
        "name": "COSMOS 2251 DEB",
        "group": "cosmos-2251-debris",
        "lat": -50.22726904947175,
        "lon": 61.90768585766148,
        "alt_km": 672.4727016026209,
        "timestamp": "2025-12-21T05:44:51.984292+00:00",
        "meta_object_name": "COSMOS 2251 DEB",
        "meta_object_id": "1993-036AVV",
        "meta_epoch": "2025-12-19T21:49:20.667936",
        "meta_mean_motion": 14.74720129,
        "meta_eccentricity": 0.0059181,
        "meta_inclination": 74.0091,
        "meta_ra_of_asc_node": 224.3569,
        "meta_arg_of_pericenter": 354.8475,
        "meta_mean_anomaly": 19.529,
        "meta_ephemeris_type": 0,
        "meta_classification_type": "U",
        "meta_norad_cat_id": 35979,
        "meta_element_set_no": 999,
        "meta_rev_at_epoch": 88739,
        "meta_bstar": 0.00048194,
        "meta_mean_motion_dot": 3.28e-05,
        "meta_mean_motion_ddot": 0,
        "tle_line1": "1 35979U 93036AVV 25353.90926699  .00003280  00000+0  48194-3 0  9993",
        "tle_line2": "2 35979  74.0091 224.3569 0059181 354.8475  19.5290 14.74720129887395"
      },
      "geometry": {
        "type": "Point",
        "coordinates": [
          61.90768585766148,
          -50.22726904947175
        ]
      }
    },
    {
      "type": "Feature",
      "properties": {
        "norad_id": 35980,
        "name": "COSMOS 2251 DEB",
        "group": "cosmos-2251-debris",
        "lat": 3.495262111086913,
        "lon": 107.37009416463441,
        "alt_km": 718.7457631623993,
        "timestamp": "2025-12-21T05:44:51.984302+00:00",
        "meta_object_name": "COSMOS 2251 DEB",
        "meta_object_id": "1993-036AVW",
        "meta_epoch": "2025-12-15T01:39:40.666752",
        "meta_mean_motion": 14.5933919,
        "meta_eccentricity": 0.00539648,
        "meta_inclination": 73.9111,
        "meta_ra_of_asc_node": 118.2073,
        "meta_arg_of_pericenter": 252.458,
        "meta_mean_anomaly": 107.0684,
        "meta_ephemeris_type": 0,
        "meta_classification_type": "U",
        "meta_norad_cat_id": 35980,
        "meta_element_set_no": 999,
        "meta_rev_at_epoch": 61520,
        "meta_bstar": 0.00098659578,
        "meta_mean_motion_dot": 4.733e-05,
        "meta_mean_motion_ddot": 0,
        "tle_line1": "1 35980U 93036AVW 25349.06922068  .00004733  00000+0  98660-3 0  9990",
        "tle_line2": "2 35980  73.9111 118.2073 0053964 252.4580 107.0684 14.59339190615208"
      },
      "geometry": {
        "type": "Point",
        "coordinates": [
          107.37009416463441,
          3.495262111086913
        ]
      }
    },
    {
      "type": "Feature",
      "properties": {
        "norad_id": 35982,
        "name": "COSMOS 2251 DEB",
        "group": "cosmos-2251-debris",
        "lat": 29.996950942159295,
        "lon": -19.844129367898198,
        "alt_km": 636.8660483871172,
        "timestamp": "2025-12-21T05:44:51.984312+00:00",
        "meta_object_name": "COSMOS 2251 DEB",
        "meta_object_id": "1993-036AVY",
        "meta_epoch": "2025-12-20T06:37:39.322848",
        "meta_mean_motion": 14.62790539,
        "meta_eccentricity": 0.00644028,
        "meta_inclination": 74.0578,
        "meta_ra_of_asc_node": 332.5013,
        "meta_arg_of_pericenter": 36.5785,
        "meta_mean_anomaly": 323.9753,
        "meta_ephemeris_type": 0,
        "meta_classification_type": "U",
        "meta_norad_cat_id": 35982,
        "meta_element_set_no": 999,
        "meta_rev_at_epoch": 86276,
        "meta_bstar": 0.00043175638,
        "meta_mean_motion_dot": 2.239e-05,
        "meta_mean_motion_ddot": 0,
        "tle_line1": "1 35982U 93036AVY 25354.27614957  .00002239  00000+0  43176-3 0  9997",
        "tle_line2": "2 35982  74.0578 332.5013 0064402  36.5785 323.9753 14.62790539862764"
      },
      "geometry": {
        "type": "Point",
        "coordinates": [
          -19.844129367898198,
          29.996950942159295
        ]
      }
    },
    {
      "type": "Feature",
      "properties": {
        "norad_id": 35987,
        "name": "COSMOS 2251 DEB",
        "group": "cosmos-2251-debris",
        "lat": 32.8946460218116,
        "lon": 120.13054576176353,
        "alt_km": 734.8914548503026,
        "timestamp": "2025-12-21T05:44:51.984322+00:00",
        "meta_object_name": "COSMOS 2251 DEB",
        "meta_object_id": "1993-036AWD",
        "meta_epoch": "2025-12-14T05:02:56.141664",
        "meta_mean_motion": 14.43139491,
        "meta_eccentricity": 0.00459797,
        "meta_inclination": 73.9997,
        "meta_ra_of_asc_node": 323.9049,
        "meta_arg_of_pericenter": 89.0828,
        "meta_mean_anomaly": 271.5596,
        "meta_ephemeris_type": 0,
        "meta_classification_type": "U",
        "meta_norad_cat_id": 35987,
        "meta_element_set_no": 999,
        "meta_rev_at_epoch": 61086,
        "meta_bstar": 0.001182332,
        "meta_mean_motion_dot": 3.997e-05,
        "meta_mean_motion_ddot": 0,
        "tle_line1": "1 35987U 93036AWD 25348.21037201  .00003997  00000+0  11823-2 0  9995",
        "tle_line2": "2 35987  73.9997 323.9049 0045979  89.0828 271.5596 14.43139491610862"
      },
      "geometry": {
        "type": "Point",
        "coordinates": [
          120.13054576176353,
          32.8946460218116
        ]
      }
    },
    {
      "type": "Feature",
      "properties": {
        "norad_id": 35989,
        "name": "COSMOS 2251 DEB",
        "group": "cosmos-2251-debris",
        "lat": 4.649832564324436,
        "lon": -90.46549278404665,
        "alt_km": 754.7164846358774,
        "timestamp": "2025-12-21T05:44:51.984332+00:00",
        "meta_object_name": "COSMOS 2251 DEB",
        "meta_object_id": "1993-036AWF",
        "meta_epoch": "2025-12-20T01:19:25.605408",
        "meta_mean_motion": 14.37111665,
        "meta_eccentricity": 0.00223466,
        "meta_inclination": 74.0357,
        "meta_ra_of_asc_node": 270.3777,
        "meta_arg_of_pericenter": 350.9982,
        "meta_mean_anomaly": 9.0768,
        "meta_ephemeris_type": 0,
        "meta_classification_type": "U",
        "meta_norad_cat_id": 35989,
        "meta_element_set_no": 999,
        "meta_rev_at_epoch": 87284,
        "meta_bstar": 0.00015999512,
        "meta_mean_motion_dot": 4.5e-06,
        "meta_mean_motion_ddot": 0,
        "tle_line1": "1 35989U 93036AWF 25354.05515747  .00000450  00000+0  16000-3 0  9996",
        "tle_line2": "2 35989  74.0357 270.3777 0022346 350.9982   9.0768 14.37111665872842"
      },
      "geometry": {
        "type": "Point",
        "coordinates": [
          -90.46549278404665,
          4.649832564324436
        ]
      }
    }
  ]
}